start=new Date('2022-03-16T00:00:00.000Z').valueOf();
sats=[{"EPOCH":"2022-03-15T17:57:58.303872","MEAN_ELEMENT_THEORY":"SGP4","PERIAPSIS":"546.145","MEAN_MOTION_DDOT":"0.0000000000000","COUNTRY_CODE":"US","NORAD_CAT_ID":"45408","REV_AT_EPOCH":"11015","BSTAR":"0.00013573000000","LAUNCH_DATE":"2020-03-18","ECCENTRICITY":"0.00015530","RCS_SIZE":"LARGE","GP_ID":"198822222","REF_FRAME":"TEME","MEAN_MOTION":"15.06397720","CLASSIFICATION_TYPE":"U","OBJECT_TYPE":"PAYLOAD","TIME_SYSTEM":"UTC","INCLINATION":"53.0527","APOAPSIS":"548.296","MEAN_MOTION_DOT":"0.00001741","OBJECT_ID":"2020-019BA","CENTER_NAME":"EARTH","TLE_LINE1":"1 45408U 20019BA  22074.74859148  .00001741  00000-0  13573-3 0  9999","PERIOD":"95.592","TLE_LINE2":"2 45408  53.0527 218.0925 0001553  65.7769 294.3382 15.06397720110155","SITE":"AFETR","EPHEMERIS_TYPE":"0","FILE":"3360792","OBJECT_NAME":"STARLINK-1278","ELEMENT_SET_NO":"999","ARG_OF_PERICENTER":"65.7769","MEAN_ANOMALY":"294.3382","RA_OF_ASC_NODE":"218.0925","SEMIMAJOR_AXIS":"6925.356","DECAY_DATE":null},{"INCLINATION":"53.0523","TIME_SYSTEM":"UTC","OBJECT_TYPE":"PAYLOAD","CLASSIFICATION_TYPE":"U","GP_ID":"198822280","MEAN_MOTION":"15.06401796","REF_FRAME":"TEME","RCS_SIZE":"LARGE","ECCENTRICITY":"0.00013720","LAUNCH_DATE":"2020-03-18","BSTAR":"0.00009434500000","REV_AT_EPOCH":"11058","NORAD_CAT_ID":"45409","COUNTRY_CODE":"US","MEAN_MOTION_DDOT":"0.0000000000000","MEAN_ELEMENT_THEORY":"SGP4","PERIAPSIS":"546.258","EPOCH":"2022-03-15T19:26:52.476576","DECAY_DATE":null,"SEMIMAJOR_AXIS":"6925.343","RA_OF_ASC_NODE":"187.8179","MEAN_ANOMALY":"289.9113","ARG_OF_PERICENTER":"70.2024","ELEMENT_SET_NO":"999","OBJECT_NAME":"STARLINK-1282","FILE":"3360795","EPHEMERIS_TYPE":"0","SITE":"AFETR","TLE_LINE2":"2 45409  53.0523 187.8179 0001372  70.2024 289.9113 15.06401796110588","PERIOD":"95.592","TLE_LINE1":"1 45409U 20019BB  22074.81032959  .00001124  00000-0  94345-4 0  9993","CENTER_NAME":"EARTH","OBJECT_ID":"2020-019BB","MEAN_MOTION_DOT":"0.00001124","APOAPSIS":"548.158"},{"MEAN_ELEMENT_THEORY":"SGP4","PERIAPSIS":"337.042","EPOCH":"2022-03-15T16:32:42.887328","COUNTRY_CODE":"US","MEAN_MOTION_DDOT":"0.0000000000000","REV_AT_EPOCH":"11226","NORAD_CAT_ID":"45410","GP_ID":"198822267","MEAN_MOTION":"15.76697610","REF_FRAME":"TEME","RCS_SIZE":"LARGE","ECCENTRICITY":"0.00041150","LAUNCH_DATE":"2020-03-18","BSTAR":"-0.00007221600000","CLASSIFICATION_TYPE":"U","INCLINATION":"53.0479","TIME_SYSTEM":"UTC","OBJECT_TYPE":"PAYLOAD","MEAN_MOTION_DOT":"-0.00012454","APOAPSIS":"342.571","CENTER_NAME":"EARTH","OBJECT_ID":"2020-019BC","TLE_LINE1":"1 45410U 20019BC  22074.68938527 -.00012454  00000-0 -72216-4 0  9999","ELEMENT_SET_NO":"999","EPHEMERIS_TYPE":"0","FILE":"3360795","OBJECT_NAME":"STARLINK-1285","SITE":"AFETR","TLE_LINE2":"2 45410  53.0479  65.7219 0004115   6.7022 353.4052 15.76697610112264","PERIOD":"91.330","ARG_OF_PERICENTER":"6.7022","RA_OF_ASC_NODE":"65.7219","MEAN_ANOMALY":"353.4052","SEMIMAJOR_AXIS":"6717.942","DECAY_DATE":null},{"NORAD_CAT_ID":"45411","REV_AT_EPOCH":"11058","BSTAR":"-0.00006255900000","LAUNCH_DATE":"2020-03-18","RCS_SIZE":"LARGE","ECCENTRICITY":"0.00013260","MEAN_MOTION":"15.06390021","GP_ID":"198822289","REF_FRAME":"TEME","EPOCH":"2022-03-15T19:48:06.450624","MEAN_ELEMENT_THEORY":"SGP4","PERIAPSIS":"546.326","MEAN_MOTION_DDOT":"0.0000000000000","COUNTRY_CODE":"US","OBJECT_TYPE":"PAYLOAD","TIME_SYSTEM":"UTC","INCLINATION":"53.0528","CLASSIFICATION_TYPE":"U","TLE_LINE1":"1 45411U 20019BD  22074.82507466 -.00001213  00000-0 -62559-4 0  9990","PERIOD":"95.593","TLE_LINE2":"2 45411  53.0528 187.7468 0001326  77.6516 282.4621 15.06390021110582","SITE":"AFETR","OBJECT_NAME":"STARLINK-1293","FILE":"3360796","EPHEMERIS_TYPE":"0","ELEMENT_SET_NO":"999","APOAPSIS":"548.162","MEAN_MOTION_DOT":"-0.00001213","OBJECT_ID":"2020-019BD","CENTER_NAME":"EARTH","SEMIMAJOR_AXIS":"6925.379","DECAY_DATE":null,"ARG_OF_PERICENTER":"77.6516","MEAN_ANOMALY":"282.4621","RA_OF_ASC_NODE":"187.7468"},{"ARG_OF_PERICENTER":"62.7775","RA_OF_ASC_NODE":"188.5119","MEAN_ANOMALY":"297.3362","SEMIMAJOR_AXIS":"6925.321","DECAY_DATE":null,"MEAN_MOTION_DOT":"-0.00002303","APOAPSIS":"548.194","CENTER_NAME":"EARTH","OBJECT_ID":"2020-019BE","TLE_LINE1":"1 45412U 20019BE  22074.65919271 -.00002303  00000-0 -13571-3 0  9993","EPHEMERIS_TYPE":"0","FILE":"3360930","OBJECT_NAME":"STARLINK-1296","ELEMENT_SET_NO":"999","TLE_LINE2":"2 45412  53.0524 188.5119 0001456  62.7775 297.3362 15.06408956110558","PERIOD":"95.592","SITE":"AFETR","CLASSIFICATION_TYPE":"U","INCLINATION":"53.0524","OBJECT_TYPE":"PAYLOAD","TIME_SYSTEM":"UTC","EPOCH":"2022-03-15T15:49:14.250144","MEAN_ELEMENT_THEORY":"SGP4","PERIAPSIS":"546.178","COUNTRY_CODE":"US","MEAN_MOTION_DDOT":"0.0000000000000","REV_AT_EPOCH":"11055","NORAD_CAT_ID":"45412","RCS_SIZE":"LARGE","ECCENTRICITY":"0.00014560","GP_ID":"198844315","MEAN_MOTION":"15.06408956","REF_FRAME":"TEME","BSTAR":"-0.00013571000000","LAUNCH_DATE":"2020-03-18"},{"ECCENTRICITY":"0.00012460","RCS_SIZE":"LARGE","MEAN_MOTION":"15.06401101","GP_ID":"198822336","REF_FRAME":"TEME","BSTAR":"-0.00005016100000","LAUNCH_DATE":"2020-03-18","REV_AT_EPOCH":"11067","NORAD_CAT_ID":"45413","COUNTRY_CODE":"US","MEAN_MOTION_DDOT":"0.0000000000000","EPOCH":"2022-03-15T19:42:48.316320","MEAN_ELEMENT_THEORY":"SGP4","PERIAPSIS":"546.347","INCLINATION":"53.0533","OBJECT_TYPE":"PAYLOAD","TIME_SYSTEM":"UTC","CLASSIFICATION_TYPE":"U","EPHEMERIS_TYPE":"0","FILE":"3360799","OBJECT_NAME":"STARLINK-1298","ELEMENT_SET_NO":"999","TLE_LINE2":"2 45413  53.0533 187.7742 0001246  76.0046 284.1082 15.06401101110679","PERIOD":"95.592","SITE":"AFETR","TLE_LINE1":"1 45413U 20019BF  22074.82139255 -.00001028  00000-0 -50161-4 0  9999","CENTER_NAME":"EARTH","OBJECT_ID":"2020-019BF","MEAN_MOTION_DOT":"-0.00001028","APOAPSIS":"548.073","DECAY_DATE":null,"SEMIMAJOR_AXIS":"6925.345","RA_OF_ASC_NODE":"187.7742","MEAN_ANOMALY":"284.1082","ARG_OF_PERICENTER":"76.0046"},{"CLASSIFICATION_TYPE":"U","INCLINATION":"53.0527","TIME_SYSTEM":"UTC","OBJECT_TYPE":"PAYLOAD","COUNTRY_CODE":"US","MEAN_MOTION_DDOT":"0.0000000000000","MEAN_ELEMENT_THEORY":"SGP4","PERIAPSIS":"546.221","EPOCH":"2022-03-15T16:10:28.960320","GP_ID":"198845315","MEAN_MOTION":"15.06398809","REF_FRAME":"TEME","ECCENTRICITY":"0.00014380","RCS_SIZE":"LARGE","LAUNCH_DATE":"2020-03-18","BSTAR":"-0.00000220730000","REV_AT_EPOCH":"11054","NORAD_CAT_ID":"45414","RA_OF_ASC_NODE":"188.4332","MEAN_ANOMALY":"276.5493","ARG_OF_PERICENTER":"83.5659","DECAY_DATE":null,"SEMIMAJOR_AXIS":"6925.352","CENTER_NAME":"EARTH","OBJECT_ID":"2020-019BG","MEAN_MOTION_DOT":"-0.00000314","APOAPSIS":"548.213","ELEMENT_SET_NO":"999","FILE":"3360930","EPHEMERIS_TYPE":"0","OBJECT_NAME":"STARLINK-1309","SITE":"AFETR","TLE_LINE2":"2 45414  53.0527 188.4332 0001438  83.5659 276.5493 15.06398809110549","PERIOD":"95.592","TLE_LINE1":"1 45414U 20019BG  22074.67394630 -.00000314  00000-0 -22073-5 0  9992"},{"CENTER_NAME":"EARTH","OBJECT_ID":"2020-019BH","MEAN_MOTION_DOT":"-0.00020884","APOAPSIS":"548.999","ELEMENT_SET_NO":"999","FILE":"3360805","EPHEMERIS_TYPE":"0","OBJECT_NAME":"STARLINK-1316","SITE":"AFETR","PERIOD":"95.594","TLE_LINE2":"2 45415  53.0539 187.7185 0002416  63.9275 296.1963 15.06363289110605","TLE_LINE1":"1 45415U 20019BH  22074.83244513 -.00020884  00000-0 -13885-2 0  9997","RA_OF_ASC_NODE":"187.7185","MEAN_ANOMALY":"296.1963","ARG_OF_PERICENTER":"63.9275","DECAY_DATE":null,"SEMIMAJOR_AXIS":"6925.461","COUNTRY_CODE":"US","MEAN_MOTION_DDOT":"0.0000000000000","MEAN_ELEMENT_THEORY":"SGP4","PERIAPSIS":"545.653","EPOCH":"2022-03-15T19:58:43.259232","MEAN_MOTION":"15.06363289","GP_ID":"198822446","REF_FRAME":"TEME","ECCENTRICITY":"0.00024160","RCS_SIZE":"LARGE","LAUNCH_DATE":"2020-03-18","BSTAR":"-0.00138850000000","REV_AT_EPOCH":"11060","NORAD_CAT_ID":"45415","CLASSIFICATION_TYPE":"U","INCLINATION":"53.0539","TIME_SYSTEM":"UTC","OBJECT_TYPE":"PAYLOAD"},{"MEAN_MOTION_DOT":"-0.00001213","APOAPSIS":"548.193","CENTER_NAME":"EARTH","OBJECT_ID":"2020-019BJ","TLE_LINE1":"1 45416U 20019BJ  22074.60021901 -.00001213  00000-0 -62511-4 0  9994","ELEMENT_SET_NO":"999","EPHEMERIS_TYPE":"0","FILE":"3360805","OBJECT_NAME":"STARLINK-1318","SITE":"AFETR","TLE_LINE2":"2 45416  53.0542 188.7817 0001431  84.7157 275.3996 15.06403860110558","PERIOD":"95.592","ARG_OF_PERICENTER":"84.7157","RA_OF_ASC_NODE":"188.7817","MEAN_ANOMALY":"275.3996","SEMIMAJOR_AXIS":"6925.337","DECAY_DATE":null,"MEAN_ELEMENT_THEORY":"SGP4","PERIAPSIS":"546.211","EPOCH":"2022-03-15T14:24:18.922464","COUNTRY_CODE":"US","MEAN_MOTION_DDOT":"0.0000000000000","REV_AT_EPOCH":"11055","NORAD_CAT_ID":"45416","GP_ID":"198822435","MEAN_MOTION":"15.06403860","REF_FRAME":"TEME","ECCENTRICITY":"0.00014310","RCS_SIZE":"LARGE","LAUNCH_DATE":"2020-03-18","BSTAR":"-0.00006251100000","CLASSIFICATION_TYPE":"U","INCLINATION":"53.0542","TIME_SYSTEM":"UTC","OBJECT_TYPE":"PAYLOAD"},{"MEAN_MOTION_DOT":"-0.00004233","APOAPSIS":"548.158","CENTER_NAME":"EARTH","OBJECT_ID":"2020-019BK","TLE_LINE1":"1 45417U 20019BK  22074.80388361 -.00004233  00000-0 -26556-3 0  9996","ELEMENT_SET_NO":"999","FILE":"3360930","EPHEMERIS_TYPE":"0","OBJECT_NAME":"STARLINK-1286","SITE":"AFETR","PERIOD":"95.593","TLE_LINE2":"2 45417  53.0515 217.8614 0001307  84.0936 276.0202 15.06387046110430","ARG_OF_PERICENTER":"84.0936","RA_OF_ASC_NODE":"217.8614","MEAN_ANOMALY":"276.0202","SEMIMAJOR_AXIS":"6925.388","DECAY_DATE":null,"MEAN_ELEMENT_THEORY":"SGP4","PERIAPSIS":"546.348","EPOCH":"2022-03-15T19:17:35.543904","COUNTRY_CODE":"US","MEAN_MOTION_DDOT":"0.0000000000000","REV_AT_EPOCH":"11043","NORAD_CAT_ID":"45417","GP_ID":"198845065","MEAN_MOTION":"15.06387046","REF_FRAME":"TEME","ECCENTRICITY":"0.00013070","RCS_SIZE":"LARGE","LAUNCH_DATE":"2020-03-18","BSTAR":"-0.00026556000000","CLASSIFICATION_TYPE":"U","INCLINATION":"53.0515","TIME_SYSTEM":"UTC","OBJECT_TYPE":"PAYLOAD"}];
